CCSDS_OMM_VERS = 2.0
CREATION_DATE  = 
ORIGINATOR     = 

OBJECT_NAME    = STARLINK-34616
OBJECT_ID      = 2025-253B
CENTER_NAME    = EARTH
REF_FRAME      = TEME
TIME_SYSTEM    = UTC
MEAN_ELEMENT_THEORY = SGP/SGP4

EPOCH          = 2025-11-30T02:52:01.579872
MEAN_MOTION    = 15.50632785
ECCENTRICITY   = .0002096
INCLINATION    = 42.9998
RA_OF_ASC_NODE = 58.5458
ARG_OF_PERICENTER = 299.0874
MEAN_ANOMALY   = 60.9776

EPHEMERIS_TYPE = 0
CLASSIFICATION_TYPE = U
NORAD_CAT_ID   = 66320
ELEMENT_SET_NO = 999
REV_AT_EPOCH   = 505
BSTAR          = .23167E-2
MEAN_MOTION_DOT = .138265E-2
MEAN_MOTION_DDOT = 0

CCSDS_OMM_VERS = 2.0
CREATION_DATE  = 
ORIGINATOR     = 

OBJECT_NAME    = STARLINK-34615
OBJECT_ID      = 2025-253C
CENTER_NAME    = EARTH
REF_FRAME      = TEME
TIME_SYSTEM    = UTC
MEAN_ELEMENT_THEORY = SGP/SGP4

EPOCH          = 2025-11-30T00:00:02.000160
MEAN_MOTION    = 15.62999672
ECCENTRICITY   = .0002313
INCLINATION    = 43.0001
RA_OF_ASC_NODE = 58.8090
ARG_OF_PERICENTER = 352.6877
MEAN_ANOMALY   = 236.8064

EPHEMERIS_TYPE = 0
CLASSIFICATION_TYPE = U
NORAD_CAT_ID   = 66321
ELEMENT_SET_NO = 999
REV_AT_EPOCH   = 492
BSTAR          = -.29081E-3
MEAN_MOTION_DOT = -.27452E-3
MEAN_MOTION_DDOT = 0

CCSDS_OMM_VERS = 2.0
CREATION_DATE  = 
ORIGINATOR     = 

OBJECT_NAME    = STARLINK-35292
OBJECT_ID      = 2025-253D
CENTER_NAME    = EARTH
REF_FRAME      = TEME
TIME_SYSTEM    = UTC
MEAN_ELEMENT_THEORY = SGP/SGP4

EPOCH          = 2025-11-29T06:00:02.000160
MEAN_MOTION    = 15.50402507
ECCENTRICITY   = .00008593
INCLINATION    = 42.9997
RA_OF_ASC_NODE = 63.6060
ARG_OF_PERICENTER = 265.9799
MEAN_ANOMALY   = 284.5583

EPHEMERIS_TYPE = 0
CLASSIFICATION_TYPE = U
NORAD_CAT_ID   = 66322
ELEMENT_SET_NO = 999
REV_AT_EPOCH   = 476
BSTAR          = -.39946051E-1
MEAN_MOTION_DOT = -.2071066E-1
MEAN_MOTION_DDOT = 0

CCSDS_OMM_VERS = 2.0
CREATION_DATE  = 
ORIGINATOR     = 

OBJECT_NAME    = STARLINK-35309
OBJECT_ID      = 2025-253E
CENTER_NAME    = EARTH
REF_FRAME      = TEME
TIME_SYSTEM    = UTC
MEAN_ELEMENT_THEORY = SGP/SGP4

EPOCH          = 2025-11-30T02:48:04.524192
MEAN_MOTION    = 15.50621796
ECCENTRICITY   = .0001468
INCLINATION    = 43.0003
RA_OF_ASC_NODE = 58.5241
ARG_OF_PERICENTER = 285.0955
MEAN_ANOMALY   = 74.9743

EPHEMERIS_TYPE = 0
CLASSIFICATION_TYPE = U
NORAD_CAT_ID   = 66323
ELEMENT_SET_NO = 999
REV_AT_EPOCH   = 497
BSTAR          = .21312E-2
MEAN_MOTION_DOT = .126926E-2
MEAN_MOTION_DDOT = 0

CCSDS_OMM_VERS = 2.0
CREATION_DATE  = 
ORIGINATOR     = 

OBJECT_NAME    = STARLINK-35506
OBJECT_ID      = 2025-253F
CENTER_NAME    = EARTH
REF_FRAME      = TEME
TIME_SYSTEM    = UTC
MEAN_ELEMENT_THEORY = SGP/SGP4

EPOCH          = 2025-11-30T02:50:03.076224
MEAN_MOTION    = 15.50629845
ECCENTRICITY   = .0001926
INCLINATION    = 42.9998
RA_OF_ASC_NODE = 58.5350
ARG_OF_PERICENTER = 287.4584
MEAN_ANOMALY   = 72.6065

EPHEMERIS_TYPE = 0
CLASSIFICATION_TYPE = U
NORAD_CAT_ID   = 66324
ELEMENT_SET_NO = 999
REV_AT_EPOCH   = 497
BSTAR          = .23684E-2
MEAN_MOTION_DOT = .141396E-2
MEAN_MOTION_DDOT = 0

CCSDS_OMM_VERS = 2.0
CREATION_DATE  = 
ORIGINATOR     = 

OBJECT_NAME    = STARLINK-35504
OBJECT_ID      = 2025-253G
CENTER_NAME    = EARTH
REF_FRAME      = TEME
TIME_SYSTEM    = UTC
MEAN_ELEMENT_THEORY = SGP/SGP4

EPOCH          = 2025-11-30T02:49:03.760032
MEAN_MOTION    = 15.50626775
ECCENTRICITY   = .0001532
INCLINATION    = 42.9995
RA_OF_ASC_NODE = 58.5296
ARG_OF_PERICENTER = 285.0589
MEAN_ANOMALY   = 75.0101

EPHEMERIS_TYPE = 0
CLASSIFICATION_TYPE = U
NORAD_CAT_ID   = 66325
ELEMENT_SET_NO = 999
REV_AT_EPOCH   = 497
BSTAR          = .21366E-2
MEAN_MOTION_DOT = .127278E-2
MEAN_MOTION_DDOT = 0

CCSDS_OMM_VERS = 2.0
CREATION_DATE  = 
ORIGINATOR     = 

OBJECT_NAME    = STARLINK-35479
OBJECT_ID      = 2025-253H
CENTER_NAME    = EARTH
REF_FRAME      = TEME
TIME_SYSTEM    = UTC
MEAN_ELEMENT_THEORY = SGP/SGP4

EPOCH          = 2025-11-30T02:47:34.730880
MEAN_MOTION    = 15.50643826
ECCENTRICITY   = .0001247
INCLINATION    = 42.9994
RA_OF_ASC_NODE = 58.5190
ARG_OF_PERICENTER = 276.6678
MEAN_ANOMALY   = 83.4040

EPHEMERIS_TYPE = 0
CLASSIFICATION_TYPE = U
NORAD_CAT_ID   = 66326
ELEMENT_SET_NO = 999
REV_AT_EPOCH   = 497
BSTAR          = .14948E-2
MEAN_MOTION_DOT = .88555E-3
MEAN_MOTION_DDOT = 0

CCSDS_OMM_VERS = 2.0
CREATION_DATE  = 
ORIGINATOR     = 

OBJECT_NAME    = STARLINK-35507
OBJECT_ID      = 2025-253J
CENTER_NAME    = EARTH
REF_FRAME      = TEME
TIME_SYSTEM    = UTC
MEAN_ELEMENT_THEORY = SGP/SGP4

EPOCH          = 2025-11-30T02:50:32.752032
MEAN_MOTION    = 15.50627483
ECCENTRICITY   = .0002039
INCLINATION    = 42.9997
RA_OF_ASC_NODE = 58.5381
ARG_OF_PERICENTER = 282.6473
MEAN_ANOMALY   = 77.4159

EPHEMERIS_TYPE = 0
CLASSIFICATION_TYPE = U
NORAD_CAT_ID   = 66327
ELEMENT_SET_NO = 999
REV_AT_EPOCH   = 497
BSTAR          = .24257E-2
MEAN_MOTION_DOT = .144882E-2
MEAN_MOTION_DDOT = 0

CCSDS_OMM_VERS = 2.0
CREATION_DATE  = 
ORIGINATOR     = 

OBJECT_NAME    = STARLINK-35460
OBJECT_ID      = 2025-253K
CENTER_NAME    = EARTH
REF_FRAME      = TEME
TIME_SYSTEM    = UTC
MEAN_ELEMENT_THEORY = SGP/SGP4

EPOCH          = 2025-11-30T02:46:05.801088
MEAN_MOTION    = 15.50639264
ECCENTRICITY   = .0001386
INCLINATION    = 42.9996
RA_OF_ASC_NODE = 58.5095
ARG_OF_PERICENTER = 270.3526
MEAN_ANOMALY   = 89.7175

EPHEMERIS_TYPE = 0
CLASSIFICATION_TYPE = U
NORAD_CAT_ID   = 66328
ELEMENT_SET_NO = 999
REV_AT_EPOCH   = 497
BSTAR          = .13954E-2
MEAN_MOTION_DOT = .82566E-3
MEAN_MOTION_DDOT = 0

CCSDS_OMM_VERS = 2.0
CREATION_DATE  = 
ORIGINATOR     = 

OBJECT_NAME    = STARLINK-35505
OBJECT_ID      = 2025-253L
CENTER_NAME    = EARTH
REF_FRAME      = TEME
TIME_SYSTEM    = UTC
MEAN_ELEMENT_THEORY = SGP/SGP4

EPOCH          = 2025-11-30T02:51:02.400192
MEAN_MOTION    = 15.50629992
ECCENTRICITY   = .0001649
INCLINATION    = 42.9999
RA_OF_ASC_NODE = 58.5417
ARG_OF_PERICENTER = 289.1735
MEAN_ANOMALY   = 70.8947

EPHEMERIS_TYPE = 0
CLASSIFICATION_TYPE = U
NORAD_CAT_ID   = 66329
ELEMENT_SET_NO = 999
REV_AT_EPOCH   = 497
BSTAR          = .24959E-2
MEAN_MOTION_DOT = .149178E-2
MEAN_MOTION_DDOT = 0

CCSDS_OMM_VERS = 2.0
CREATION_DATE  = 
ORIGINATOR     = 

OBJECT_NAME    = STARLINK-35512
OBJECT_ID      = 2025-253M
CENTER_NAME    = EARTH
REF_FRAME      = TEME
TIME_SYSTEM    = UTC
MEAN_ELEMENT_THEORY = SGP/SGP4

EPOCH          = 2025-11-30T02:48:33.803424
MEAN_MOTION    = 15.50658728
ECCENTRICITY   = .0000904
INCLINATION    = 42.9998
RA_OF_ASC_NODE = 58.5263
ARG_OF_PERICENTER = 286.1960
MEAN_ANOMALY   = 73.8800

EPHEMERIS_TYPE = 0
CLASSIFICATION_TYPE = U
NORAD_CAT_ID   = 66330
ELEMENT_SET_NO = 999
REV_AT_EPOCH   = 497
BSTAR          = .20589E-2
MEAN_MOTION_DOT = .122702E-2
MEAN_MOTION_DDOT = 0

CCSDS_OMM_VERS = 2.0
CREATION_DATE  = 
ORIGINATOR     = 

OBJECT_NAME    = STARLINK-35257
OBJECT_ID      = 2025-253N
CENTER_NAME    = EARTH
REF_FRAME      = TEME
TIME_SYSTEM    = UTC
MEAN_ELEMENT_THEORY = SGP/SGP4

EPOCH          = 2025-11-30T02:44:37.076064
MEAN_MOTION    = 15.50623441
ECCENTRICITY   = .000193
INCLINATION    = 42.9998
RA_OF_ASC_NODE = 58.5036
ARG_OF_PERICENTER = 283.4992
MEAN_ANOMALY   = 76.5653

EPHEMERIS_TYPE = 0
CLASSIFICATION_TYPE = U
NORAD_CAT_ID   = 66331
ELEMENT_SET_NO = 999
REV_AT_EPOCH   = 497
BSTAR          = .22378E-2
MEAN_MOTION_DOT = .133411E-2
MEAN_MOTION_DDOT = 0

