STARLINK-34616          
1 66320U 25253B   25334.11946273  .00138265  00000+0  23167-2 0  9999
2 66320  42.9998  58.5458 0002096 299.0874  60.9776 15.50632785  5058
STARLINK-34615          
1 66321U 25253C   25334.00002315 -.00027452  00000+0 -29081-3 0  9997
2 66321  43.0001  58.8090 0002313 352.6877 236.8064 15.62999672  4925
STARLINK-35292          
1 66322U 25253D   25333.25002315 -.02071066  00000+0 -39946-1 0  9995
2 66322  42.9997  63.6060 0000859 265.9799 284.5583 15.50402507  4762
STARLINK-35309          
1 66323U 25253E   25334.11671903  .00126926  00000+0  21312-2 0  9998
2 66323  43.0003  58.5241 0001468 285.0955  74.9743 15.50621796  4976
STARLINK-35506          
1 66324U 25253F   25334.11809116  .00141396  00000+0  23684-2 0  9990
2 66324  42.9998  58.5350 0001926 287.4584  72.6065 15.50629845  4977
STARLINK-35504          
1 66325U 25253G   25334.11740463  .00127278  00000+0  21366-2 0  9998
2 66325  42.9995  58.5296 0001532 285.0589  75.0101 15.50626775  4973
STARLINK-35479          
1 66326U 25253H   25334.11637420  .00088555  00000+0  14948-2 0  9999
2 66326  42.9994  58.5190 0001247 276.6678  83.4040 15.50643826  4975
STARLINK-35507          
1 66327U 25253J   25334.11843463  .00144882  00000+0  24257-2 0  9996
2 66327  42.9997  58.5381 0002039 282.6473  77.4159 15.50627483  4976
STARLINK-35460          
1 66328U 25253K   25334.11534492  .00082566  00000+0  13954-2 0  9998
2 66328  42.9996  58.5095 0001386 270.3526  89.7175 15.50639264  4979
STARLINK-35505          
1 66329U 25253L   25334.11877778  .00149178  00000+0  24959-2 0  9996
2 66329  42.9999  58.5417 0001649 289.1735  70.8947 15.50629992  4978
STARLINK-35512          
1 66330U 25253M   25334.11705791  .00122702  00000+0  20589-2 0  9992
2 66330  42.9998  58.5263 0000904 286.1960  73.8800 15.50658728  4978
STARLINK-35257          
1 66331U 25253N   25334.11431801  .00133411  00000+0  22378-2 0  9998
2 66331  42.9998  58.5036 0001930 283.4992  76.5653 15.50623441  4972
